ONEWEB-0267             
1 48985U 21060U   24198.90478379  .00000082  00000+0  18094-3 0  9998
2 48985  87.9109   8.1879 0001918  79.2729 280.8617 13.16593462147440
ONEWEB-0268             
1 48986U 21060V   24198.87311200 -.00000013  00000+0 -66439-4 0  9997
2 48986  87.9111   8.2003 0001909  88.9491 271.1858 13.16594906148992
ONEWEB-0269             
1 48987U 21060W   24198.93011965  .00000109  00000+0  25152-3 0  9990
2 48987  87.9113   8.2156 0001869  94.0200 266.1144 13.16594722147486
ONEWEB-0270             
1 48988U 21060X   24198.87153609  .00000030  00000+0  44168-4 0  9998
2 48988  87.9107   8.2086 0001602  73.0462 287.0845 13.16594241147514
ONEWEB-0271             
1 48989U 21060Y   24198.93486244  .00000112  00000+0  26021-3 0  9998
2 48989  87.9109   8.1732 0001822  78.8999 281.2337 13.16593787147523
ONEWEB-0272             
1 48990U 21060Z   24198.88101727  .00000000  00000+0 -33476-4 0  9994
2 48990  87.9110   8.2124 0001844  82.3382 277.7958 13.16591830148766
ONEWEB-0273             
1 48991U 21060AA  24198.90319657  .00000054  00000+0  10831-3 0  9998
2 48991  87.9111   8.1949 0001650  87.0583 273.0737 13.16593229147444
ONEWEB-0274             
1 48992U 21060AB  24198.92853353  .00000117  00000+0  27127-3 0  9993
2 48992  87.9118   8.2057 0002295  85.2546 274.8847 13.16593674147487
